1 25986U 99065G   19273.28043045  .00000032  00000-0  62825-4 0  9999
2 25986  45.0399 199.0229 0004391   4.7029 355.3858 14.32766702 35422
1 25986U 99065G   19274.81444421  .00000054  00000-0  70820-4 0  9990
2 25986  45.0399 191.8161 0004277  12.9402 347.1554 14.32767212 35649
1 25986U 99065G   19274.88417210 +.00000052 +00000-0 +70244-4 0  9991
2 25986 045.0399 191.4885 0004270 013.3380 346.7579 14.32767231035699
1 25986U 99065G   19275.23281145 +.00000062 +00000-0 +73799-4 0  9996
2 25986 045.0399 189.8508 0004249 015.3202 344.7773 14.32767406035747
1 25986U 99065G   19276.20900141  .00000070  00000-0  76855-4 0  9993
2 25986  45.0400 185.2648 0004184  20.8204 339.2812 14.32767850 35843
1 25986U 99065G   19276.83655190 +.00000068 +00000-0 +75995-4 0  9994
2 25986 045.0400 182.3165 0004141 024.3551 335.7491 14.32768132035974
1 25986U 99065G   19277.81274136  .00000050  00000-0  69347-4 0  9995
2 25986  45.0400 177.7306 0004076  29.9046 330.2033 14.32768511 36071
1 25986U 99065G   19277.88246917 +.00000049 +00000-0 +69017-4 0  9990
2 25986 045.0400 177.4030 0004072 030.3475 329.7607 14.32768544036122
1 25986U 99065G   19278.85865836 +.00000033 +00000-0 +63223-4 0  9991
2 25986 045.0400 172.8171 0004014 035.9842 324.1275 14.32768916036260
1 25986U 99065G   19279.13756957  .00000028  00000-0  61568-4 0  9990
2 25986  45.0399 171.5069 0004000  37.6091 322.5034 14.32768994 36260
1 25986U 99065G   19279.83484731 +.00000022 +00000-0 +59293-4 0  9991
2 25986 045.0399 168.2311 0003958 041.7035 318.4113 14.32769248036409
1 25986U 99065G   19280.18348616  .00000025  00000-0  60405-4 0  9992
2 25986  45.0398 166.5933 0003943  43.8191 316.2968 14.32769383 36414
1 25986U 99065G   19280.74130819 +.00000026 +00000-0 +60719-4 0  9997
2 25986 045.0398 163.9726 0003911 047.1411 312.9764 14.32769568036537
1 25986U 99065G   19281.15967472 +.00000032 +00000-0 +63006-4 0  9995
2 25986 045.0398 162.0072 0003897 049.7447 310.3740 14.32769719036591
1 25986U 99065G   19282.06613534  .00000040  00000-0  65664-4 0  9994
2 25986  45.0397 157.7487 0003863  55.3029 304.8182 14.32769974 36684
1 25986U 99065G   19282.69368484 +.00000042 +00000-0 +66412-4 0  9998
2 25986 045.0396 154.8005 0003843 059.1676 300.9549 14.32770137036817
1 25986U 99065G   19283.11205121  .00000035  00000-0  64166-4 0  9990
2 25986  45.0396 152.8351 0003833  61.8008 298.3226 14.32770182 36831
1 25986U 99065G   19283.87905596 +.00000029 +00000-0 +61752-4 0  9997
2 25986 045.0395 149.2316 0003813 066.8470 293.2778 14.32770333036987
1 25986U 99065G   19284.64606051  .00000024  00000-0  60133-4 0  9994
2 25986  45.0395 145.6281 0003798  71.6828 288.4431 14.32770526 37056
